NORAD_CAT_ID,OBJECT_NAME,OBJECT_TYPE,EPOCH,MEAN_MOTION,ECCENTRICITY,INCLINATION,RA_OF_ASC_NODE,ARG_OF_PERICENTER,MEAN_ANOMALY,BSTAR,MEAN_MOTION_DOT,MEAN_MOTION_DDOT,TLE_LINE0,TLE_LINE1,TLE_LINE2,SEMIMAJOR_AXIS,PERIOD,APOGEE,PERIGEE,DECAYED
55661.0,STARLINK-5475,PAYLOAD,2024-02-11 21:33:49,14.98336676,0.0003124,69.998,272.6312,269.0808,90.9993,-2.0201e-05,-3.34e-06,0.0,0 STARLINK-5475,1 55661U 23021AK  24042.89848940 -.00000334  00000-0 -20201-4 0  9994,2 55661  69.9980 272.6312 0003124 269.0808  90.9993 14.98336676 55925,6950.172,96.107,574.208,569.866,0.0
55661.0,STARLINK-5475,PAYLOAD,2024-02-12 15:11:17,14.98341053,0.0002485,70.0,270.782,237.3806,122.7113,-0.00012858,-1.627e-05,0.0,0 STARLINK-5475,1 55661U 23021AK  24043.63284611 -.00001627  00000-0 -12858-3 0  9990,2 55661  70.0000 270.7820 0002485 237.3806 122.7113 14.98341053 56035,6950.159,96.106,573.751,570.297,0.0
55661.0,STARLINK-5475,PAYLOAD,2024-02-12 19:59:42,14.98340238,0.0002699,69.9998,270.2774,239.7998,120.2894,-0.00015984,-2e-05,0.0,0 STARLINK-5475,1 55661U 23021AK  24043.83312594 -.00002000  00000-0 -15984-3 0  9993,2 55661  69.9998 270.2774 0002699 239.7998 120.2894 14.98340238 55768,6950.161,96.106,573.902,570.15,0.0
55661.0,STARLINK-5475,PAYLOAD,2024-02-12 21:35:50,14.98338632,0.0002716,69.9997,270.1091,243.1125,116.9757,-0.00017632,-2.197e-05,0.0,0 STARLINK-5475,1 55661U 23021AK  24043.89988709 -.00002197  00000-0 -17632-3 0  9995,2 55661  69.9997 270.1091 0002716 243.1125 116.9757 14.98338632 56079,6950.166,96.106,573.919,570.144,0.0
55661.0,STARLINK-5475,PAYLOAD,2024-02-13 08:48:46,14.98356706,0.0002986,69.9986,268.9279,270.8795,89.2022,-0.00051538,-6.241e-05,0.0,0 STARLINK-5475,1 55661U 23021AK  24044.36720175 -.00006241  00000-0 -51538-3 0  9996,2 55661  69.9986 268.9279 0002986 270.8795  89.2022 14.98356706 56146,6950.11,96.105,574.051,569.9,0.0
55661.0,STARLINK-5475,PAYLOAD,2024-02-13 20:01:43,14.98326934,0.0002884,69.9986,267.7502,273.8501,86.2328,5.326e-05,5.42e-06,0.0,0 STARLINK-5475,1 55661U 23021AK  24044.83452677  .00000542  00000-0  53260-4 0  9998,2 55661  69.9986 267.7502 0002884 273.8501  86.2328 14.98326934 55917,6950.202,96.107,574.072,570.063,0.0
55661.0,STARLINK-5475,PAYLOAD,2024-02-13 21:37:51,14.98327886,0.0003094,69.9984,267.5816,277.8319,82.2489,6.6698e-05,7.03e-06,0.0,0 STARLINK-5475,1 55661U 23021AK  24044.90128589  .00000703  00000-0  66698-4 0  9996,2 55661  69.9984 267.5816 0003094 277.8319  82.2489 14.98327886 56222,6950.199,96.107,574.215,569.914,0.0
55661.0,STARLINK-5475,PAYLOAD,2024-02-14 13:39:11,14.98328064,0.0002848,69.9986,265.8984,273.6853,86.398,2.8779e-05,2.5e-06,0.0,0 STARLINK-5475,1 55661U 23021AK  24045.56888602  .00000250  00000-0  28779-4 0  9993,2 55661  69.9986 265.8984 0002848 273.6853  86.3980 14.98328064 56325,6950.199,96.107,574.043,570.084,0.0
55661.0,STARLINK-5475,PAYLOAD,2024-02-14 21:39:51,14.98329478,0.0002875,69.9985,265.0566,272.9279,87.1551,3.7203e-05,3.51e-06,0.0,0 STARLINK-5475,1 55661U 23021AK  24045.90268486  .00000351  00000-0  37203-4 0  9997,2 55661  69.9985 265.0566 0002875 272.9279  87.1551 14.98329478 56374,6950.195,96.107,574.058,570.061,0.0
55661.0,STARLINK-5475,PAYLOAD,2024-02-15 00:52:08,14.98329856,0.0002883,69.9984,264.72,273.0061,87.0768,3.8755e-05,3.69e-06,0.0,0 STARLINK-5475,1 55661U 23021AK  24046.03620460  .00000369  00000-0  38755-4 0  9998,2 55661  69.9984 264.7200 0002883 273.0061  87.0768 14.98329856 56092,6950.193,96.107,574.062,570.055,0.0
55661.0,STARLINK-5475,PAYLOAD,2024-02-15 07:16:40,14.98329139,0.0002862,69.9984,264.0466,273.2072,86.8759,1.9827e-05,1.44e-06,0.0,0 STARLINK-5475,1 55661U 23021AK  24046.30324552  .00000144  00000-0  19827-4 0  9991,2 55661  69.9984 264.0466 0002862 273.2072  86.8759 14.98329139 56439,6950.196,96.107,574.05,570.071,0.0
55661.0,STARLINK-5475,PAYLOAD,2024-02-15 21:41:53,14.98329853,0.0002841,69.9985,262.5322,268.413,91.6704,-1.6633e-05,-2.91e-06,0.0,0 STARLINK-5475,1 55661U 23021AK  24046.90408576 -.00000291  00000-0 -16633-4 0  9993,2 55661  69.9985 262.5322 0002841 268.4130  91.6704 14.98329853 56529,6950.193,96.107,574.033,570.084,0.0
55661.0,STARLINK-5475,PAYLOAD,2024-02-16 00:54:09,14.98330649,0.0002839,69.9984,262.1955,268.3961,91.6873,-7.3302e-06,-1.8e-06,0.0,0 STARLINK-5475,1 55661U 23021AK  24047.03760495 -.00000180  00000-0 -73302-5 0  9993,2 55661  69.9984 262.1955 0002839 268.3961  91.6873 14.98330649 56245,6950.191,96.107,574.029,570.083,0.0
55661.0,STARLINK-5475,PAYLOAD,2024-02-16 21:43:54,14.98326447,0.000286,69.9985,260.0072,268.3196,91.7635,-4.1879e-05,-5.93e-06,0.0,0 STARLINK-5475,1 55661U 23021AK  24047.90548935 -.00000593  00000-0 -41879-4 0  9993,2 55661  69.9985 260.0072 0002860 268.3196  91.7635 14.98326447 56672,6950.204,96.107,574.057,570.081,0.0
55661.0,STARLINK-5475,PAYLOAD,2024-02-17 00:56:10,14.98327341,0.0002859,69.9985,259.6705,268.2328,91.8503,-3.0784e-05,-4.6e-06,0.0,0 STARLINK-5475,1 55661U 23021AK  24048.03900871 -.00000460  00000-0 -30784-4 0  9995,2 55661  69.9985 259.6705 0002859 268.2328  91.8503 14.98327341 56391,6950.201,96.107,574.053,570.079,0.0
55661.0,STARLINK-5475,PAYLOAD,2024-02-17 07:20:42,14.98329284,0.0002865,69.9985,258.9971,269.2453,90.8378,1.1283e-05,4.2e-07,0.0,0 STARLINK-5475,1 55661U 23021AK  24048.30604669  .00000042  00000-0  11283-4 0  9998,2 55661  69.9985 258.9971 0002865 269.2453  90.8378 14.98329284 56730,6950.195,96.107,574.051,570.069,0.0
55661.0,STARLINK-5475,PAYLOAD,2024-02-17 20:09:46,14.98332928,0.0003007,69.9981,257.6495,268.0504,92.031,4.1046e-05,3.97e-06,0.0,0 STARLINK-5475,1 55661U 23021AK  24048.84012271  .00000397  00000-0  41046-4 0  9992,2 55661  69.9981 257.6495 0003007 268.0504  92.0310 14.98332928 56511,6950.184,96.107,574.139,569.959,0.0
55661.0,STARLINK-5475,PAYLOAD,2024-02-17 21:45:54,14.98333316,0.000299,69.9981,257.4812,268.2139,91.8677,4.6934e-05,4.67e-06,0.0,0 STARLINK-5475,1 55661U 23021AK  24048.90688220  .00000467  00000-0  46934-4 0  9991,2 55661  69.9981 257.4812 0002990 268.2139  91.8677 14.98333316 56827,6950.183,96.107,574.126,569.97,0.0
55661.0,STARLINK-5475,PAYLOAD,2024-02-18 13:47:15,14.98330947,0.000304,69.9979,255.7975,268.5982,91.4829,5.3402e-05,5.44e-06,0.0,0 STARLINK-5475,1 55661U 23021AK  24049.57448247  .00000544  00000-0  53402-4 0  9992,2 55661  69.9979 255.7975 0003040 268.5982  91.4829 14.98330947 56924,6950.19,96.107,574.168,569.942,0.0
55661.0,STARLINK-5475,PAYLOAD,2024-02-18 20:11:47,14.98331476,0.0003043,69.9979,255.1246,269.3081,90.7729,5.3906e-05,5.5e-06,0.0,0 STARLINK-5475,1 55661U 23021AK  24049.84152188  .00000550  00000-0  53906-4 0  9994,2 55661  69.9979 255.1246 0003043 269.3081  90.7729 14.98331476 56661,6950.188,96.107,574.168,569.938,0.0
55661.0,STARLINK-5475,PAYLOAD,2024-02-18 21:47:55,14.98332252,0.000302,69.9978,254.9563,269.4115,90.6698,6.3081e-05,6.6e-06,0.0,0 STARLINK-5475,1 55661U 23021AK  24049.90828104  .00000660  00000-0  63081-4 0  9996,2 55661  69.9978 254.9563 0003020 269.4115  90.6698 14.98332252 56974,6950.186,96.107,574.15,569.952,0.0
55661.0,STARLINK-5475,PAYLOAD,2024-02-19 13:49:16,14.98331229,0.0002972,69.9979,253.2729,269.5555,90.5263,-4.2043e-05,-5.95e-06,0.0,0 STARLINK-5475,1 55661U 23021AK  24050.57588365 -.00000595  00000-0 -42043-4 0  9997,2 55661  69.9979 253.2729 0002972 269.5555  90.5263 14.98331229 57077,6950.189,96.107,574.12,569.988,0.0
55661.0,STARLINK-5475,PAYLOAD,2024-02-19 20:13:48,14.98330599,0.0002986,69.998,252.5996,269.6803,90.4014,-4.8934e-05,-6.77e-06,0.0,0 STARLINK-5475,1 55661U 23021AK  24050.84292390 -.00000677  00000-0 -48934-4 0  9993,2 55661  69.9980 252.5996 0002986 269.6803  90.4014 14.98330599 56812,6950.191,96.107,574.131,569.981,0.0
55661.0,STARLINK-5475,PAYLOAD,2024-02-19 21:49:56,14.98330153,0.0003,69.998,252.4314,269.8407,90.2408,-5.368e-05,-7.33e-06,0.0,0 STARLINK-5475,1 55661U 23021AK  24050.90968423 -.00000733  00000-0 -53680-4 0  9994,2 55661  69.9980 252.4314 0003000 269.8407  90.2408 14.98330153 57121,6950.192,96.107,574.142,569.972,0.0
55661.0,STARLINK-5475,PAYLOAD,2024-02-20 13:51:17,14.98332279,0.0002964,69.998,250.7479,270.2973,89.7846,-6.0119e-06,-1.65e-06,0.0,0 STARLINK-5475,1 55661U 23021AK  24051.57728086 -.00000165  00000-0 -60119-5 0  9992,2 55661  69.9980 250.7479 0002964 270.2973  89.7846 14.98332279 57227,6950.186,96.107,574.111,569.991,0.0
55661.0,STARLINK-5475,PAYLOAD,2024-02-20 20:15:49,14.98332401,0.0002986,69.998,250.0744,270.5464,89.5353,-8.8644e-06,-1.99e-06,0.0,0 STARLINK-5475,1 55661U 23021AK  24051.84432039 -.00000199  00000-0 -88644-5 0  9992,2 55661  69.9980 250.0744 0002986 270.5464  89.5353 14.98332401 56965,6950.185,96.107,574.126,569.975,0.0
55661.0,STARLINK-5475,PAYLOAD,2024-02-20 21:51:57,14.98332116,0.0002989,69.998,249.9061,270.5654,89.5163,-1.1225e-05,-2.27e-06,0.0,0 STARLINK-5475,1 55661U 23021AK  24051.91108053 -.00000227  00000-0 -11225-4 0  9998,2 55661  69.9980 249.9061 0002989 270.5654  89.5163 14.98332116 57275,6950.186,96.107,574.129,569.974,0.0
55661.0,STARLINK-5475,PAYLOAD,2024-02-21 13:53:17,14.98330547,0.0003031,69.9981,248.2226,271.2542,88.827,4.2468e-05,4.14e-06,0.0,0 STARLINK-5475,1 55661U 23021AK  24052.57867893  .00000414  00000-0  42468-4 0  9994,2 55661  69.9981 248.2226 0003031 271.2542  88.8270 14.98330547 57372,6950.191,96.107,574.163,569.95,0.0
55661.0,STARLINK-5475,PAYLOAD,2024-02-21 20:17:50,14.98330306,0.0003041,69.9983,247.5492,271.5895,88.4916,3.6574e-05,3.43e-06,0.0,0 STARLINK-5475,1 55661U 23021AK  24052.84571903  .00000343  00000-0  36574-4 0  9990,2 55661  69.9983 247.5492 0003041 271.5895  88.4916 14.98330306 57114,6950.192,96.107,574.17,569.943,0.0
55661.0,STARLINK-5475,PAYLOAD,2024-02-21 21:53:58,14.98330882,0.0003034,69.9983,247.381,271.4936,88.5875,4.2047e-05,4.09e-06,0.0,0 STARLINK-5475,1 55661U 23021AK  24052.91247843  .00000409  00000-0  42047-4 0  9996,2 55661  69.9983 247.3810 0003034 271.4936  88.5875 14.98330882 57421,6950.19,96.107,574.164,569.946,0.0
